ONEWEB-0686             
1 56721U 23068M   25255.55076148 -.00000054  00000+0 -17503-3 0  9994
2 56721  87.8974 284.1361 0001938 102.8567 257.2781 13.16597217115181
ONEWEB-0694             
1 56722U 23068N   25255.51752333  .00000061  00000+0  12658-3 0  9990
2 56722  87.8994 284.0721 0002268 100.5916 259.5471 13.16592869115238
ONEWEB-0696             
1 56723U 23068P   25255.41129434 -.00000057  00000+0 -18424-3 0  9994
2 56723  87.9033 314.6604 0001612  94.1998 265.9317 13.15549962112843
ONEWEB-0703             
1 56724U 23068Q   25254.66022787 -.00000141  00000+0 -40929-3 0  9993
2 56724  87.9030 314.7942 0001544  62.2487 297.8800 13.15549451112631
ONEWEB-0721             
1 56725U 23068R   25255.46835040  .00000053  00000+0  93144-4 0  9995
2 56725  86.6877 174.0507 0001864  73.8464 286.2874 13.22445090121230
ONEWEB-0015             
1 61594U 24188A   25255.51291998 -.00000006  00000+0 -52682-4 0  9995
2 61594  87.8775  76.4224 0002256  83.8805 276.2580 13.11414944 48061
ONEWEB-0687             
1 61595U 24188B   25255.45625897  .00000033  00000+0  50783-4 0  9996
2 61595  87.9035  61.1551 0002294  98.9097 261.2294 13.17650851 49329
ONEWEB-0688             
1 61596U 24188C   25255.18120394 -.00000541  00000+0 -14278-2 0  9992
2 61596  87.9030  61.2099 0002945  81.2400 278.9065 13.17649981 49287
ONEWEB-0689             
1 61597U 24188D   25255.24163179 -.00000131  00000+0 -40550-3 0  9996
2 61597  87.8746  76.4307 0001965  97.0041 263.1310 13.11419681 48024
ONEWEB-0690             
1 61598U 24188E   25255.25181424  .00000281  00000+0  75575-3 0  9990
2 61598  87.8792  76.4091 0001297  65.6360 294.4904 13.11419269 48207
ONEWEB-0691             
1 61599U 24188F   25255.24672396  .00000067  00000+0  15282-3 0  9994
2 61599  87.8712  76.3670 0002055  81.7095 278.4266 13.11419840 48050
ONEWEB-0692             
1 61600U 24188G   25254.58042984  .00000447  00000+0  12245-2 0  9994
2 61600  87.8768  76.6079 0001365 123.4125 236.7134 13.11417178 47952
ONEWEB-0693             
1 61601U 24188H   25255.19302071  .00000010  00000+0 -81797-5 0  9997
2 61601  87.9034  61.2262 0001609  62.6785 297.4510 13.17647447 49270
ONEWEB-0695             
1 61602U 24188J   25255.47221574 -.00000165  00000+0 -50123-3 0  9996
2 61602  87.8772  76.4163 0001790 107.7080 252.4243 13.11417845 48068
ONEWEB-0697             
1 61603U 24188K   25255.19925952  .00001591  00000+0  44528-2 0  9990
2 61603  87.8768  76.4621 0001443 114.5995 245.5284 13.11409597 48017
ONEWEB-0698             
1 61604U 24188L   25255.48240143  .00000268  00000+0  71903-3 0  9993
2 61604  87.8772  76.4198 0000609  99.0032 261.1165 13.11418523 48071
ONEWEB-0699             
1 61605U 24188M   25255.57963815 -.00000614  00000+0 -17940-2 0  9999
2 61605  87.8748  91.6154 0001239 103.2792 256.8473 13.10373954 46952
