[{"OBJECT_NAME":"ONEWEB-0686","OBJECT_ID":"2023-068M","EPOCH":"2025-09-12T13:13:05.791872","MEAN_MOTION":13.16597217,"ECCENTRICITY":0.0001938,"INCLINATION":87.8974,"RA_OF_ASC_NODE":284.1361,"ARG_OF_PERICENTER":102.8567,"MEAN_ANOMALY":257.2781,"EPHEMERIS_TYPE":0,"CLASSIFICATION_TYPE":"U","NORAD_CAT_ID":56721,"ELEMENT_SET_NO":999,"REV_AT_EPOCH":11518,"BSTAR":-0.00017502591,"MEAN_MOTION_DOT":-5.4e-7,"MEAN_MOTION_DDOT":0},{"OBJECT_NAME":"ONEWEB-0694","OBJECT_ID":"2023-068N","EPOCH":"2025-09-12T12:25:14.015712","MEAN_MOTION":13.16592869,"ECCENTRICITY":0.00022687,"INCLINATION":87.8994,"RA_OF_ASC_NODE":284.0721,"ARG_OF_PERICENTER":100.5916,"MEAN_ANOMALY":259.5471,"EPHEMERIS_TYPE":0,"CLASSIFICATION_TYPE":"U","NORAD_CAT_ID":56722,"ELEMENT_SET_NO":999,"REV_AT_EPOCH":11523,"BSTAR":0.0001265766,"MEAN_MOTION_DOT":6.1e-7,"MEAN_MOTION_DDOT":0},{"OBJECT_NAME":"ONEWEB-0696","OBJECT_ID":"2023-068P","EPOCH":"2025-09-12T09:52:15.830976","MEAN_MOTION":13.15549962,"ECCENTRICITY":0.00016124,"INCLINATION":87.9033,"RA_OF_ASC_NODE":314.6604,"ARG_OF_PERICENTER":94.1998,"MEAN_ANOMALY":265.9317,"EPHEMERIS_TYPE":0,"CLASSIFICATION_TYPE":"U","NORAD_CAT_ID":56723,"ELEMENT_SET_NO":999,"REV_AT_EPOCH":11284,"BSTAR":-0.00018423824,"MEAN_MOTION_DOT":-5.7e-7,"MEAN_MOTION_DDOT":0},{"OBJECT_NAME":"ONEWEB-0703","OBJECT_ID":"2023-068Q","EPOCH":"2025-09-11T15:50:43.687968","MEAN_MOTION":13.15549451,"ECCENTRICITY":0.00015445,"INCLINATION":87.903,"RA_OF_ASC_NODE":314.7942,"ARG_OF_PERICENTER":62.2487,"MEAN_ANOMALY":297.88,"EPHEMERIS_TYPE":0,"CLASSIFICATION_TYPE":"U","NORAD_CAT_ID":56724,"ELEMENT_SET_NO":999,"REV_AT_EPOCH":11263,"BSTAR":-0.00040929157,"MEAN_MOTION_DOT":-1.41e-6,"MEAN_MOTION_DDOT":0},{"OBJECT_NAME":"ONEWEB-0721","OBJECT_ID":"2023-068R","EPOCH":"2025-09-12T11:14:25.474560","MEAN_MOTION":13.2244509,"ECCENTRICITY":0.00018647,"INCLINATION":86.6877,"RA_OF_ASC_NODE":174.0507,"ARG_OF_PERICENTER":73.8464,"MEAN_ANOMALY":286.2874,"EPHEMERIS_TYPE":0,"CLASSIFICATION_TYPE":"U","NORAD_CAT_ID":56725,"ELEMENT_SET_NO":999,"REV_AT_EPOCH":12123,"BSTAR":9.3144042e-5,"MEAN_MOTION_DOT":5.3e-7,"MEAN_MOTION_DDOT":0},{"OBJECT_NAME":"ONEWEB-0015","OBJECT_ID":"2024-188A","EPOCH":"2025-09-12T12:18:36.286272","MEAN_MOTION":13.11414944,"ECCENTRICITY":0.00022561,"INCLINATION":87.8775,"RA_OF_ASC_NODE":76.4224,"ARG_OF_PERICENTER":83.8805,"MEAN_ANOMALY":276.258,"EPHEMERIS_TYPE":0,"CLASSIFICATION_TYPE":"U","NORAD_CAT_ID":61594,"ELEMENT_SET_NO":999,"REV_AT_EPOCH":4806,"BSTAR":-5.2681911e-5,"MEAN_MOTION_DOT":-6.0e-8,"MEAN_MOTION_DDOT":0},{"OBJECT_NAME":"ONEWEB-0687","OBJECT_ID":"2024-188B","EPOCH":"2025-09-12T10:57:00.775008","MEAN_MOTION":13.17650851,"ECCENTRICITY":0.00022946,"INCLINATION":87.9035,"RA_OF_ASC_NODE":61.1551,"ARG_OF_PERICENTER":98.9097,"MEAN_ANOMALY":261.2294,"EPHEMERIS_TYPE":0,"CLASSIFICATION_TYPE":"U","NORAD_CAT_ID":61595,"ELEMENT_SET_NO":999,"REV_AT_EPOCH":4932,"BSTAR":5.0782974e-5,"MEAN_MOTION_DOT":3.3e-7,"MEAN_MOTION_DDOT":0},{"OBJECT_NAME":"ONEWEB-0688","OBJECT_ID":"2024-188C","EPOCH":"2025-09-12T04:20:56.020416","MEAN_MOTION":13.17649981,"ECCENTRICITY":0.00029454,"INCLINATION":87.903,"RA_OF_ASC_NODE":61.2099,"ARG_OF_PERICENTER":81.24,"MEAN_ANOMALY":278.9065,"EPHEMERIS_TYPE":0,"CLASSIFICATION_TYPE":"U","NORAD_CAT_ID":61596,"ELEMENT_SET_NO":999,"REV_AT_EPOCH":4928,"BSTAR":-0.0014278415,"MEAN_MOTION_DOT":-5.41e-6,"MEAN_MOTION_DDOT":0},{"OBJECT_NAME":"ONEWEB-0689","OBJECT_ID":"2024-188D","EPOCH":"2025-09-12T05:47:56.986656","MEAN_MOTION":13.11419681,"ECCENTRICITY":0.0001965,"INCLINATION":87.8746,"RA_OF_ASC_NODE":76.4307,"ARG_OF_PERICENTER":97.0041,"MEAN_ANOMALY":263.131,"EPHEMERIS_TYPE":0,"CLASSIFICATION_TYPE":"U","NORAD_CAT_ID":61597,"ELEMENT_SET_NO":999,"REV_AT_EPOCH":4802,"BSTAR":-0.0004054956,"MEAN_MOTION_DOT":-1.31e-6,"MEAN_MOTION_DDOT":0},{"OBJECT_NAME":"ONEWEB-0690","OBJECT_ID":"2024-188E","EPOCH":"2025-09-12T06:02:36.750336","MEAN_MOTION":13.11419269,"ECCENTRICITY":0.00012979,"INCLINATION":87.8792,"RA_OF_ASC_NODE":76.4091,"ARG_OF_PERICENTER":65.636,"MEAN_ANOMALY":294.4904,"EPHEMERIS_TYPE":0,"CLASSIFICATION_TYPE":"U","NORAD_CAT_ID":61598,"ELEMENT_SET_NO":999,"REV_AT_EPOCH":4820,"BSTAR":0.0007557454,"MEAN_MOTION_DOT":2.81e-6,"MEAN_MOTION_DDOT":0},{"OBJECT_NAME":"ONEWEB-0691","OBJECT_ID":"2024-188F","EPOCH":"2025-09-12T05:55:16.950144","MEAN_MOTION":13.1141984,"ECCENTRICITY":0.00020553,"INCLINATION":87.8712,"RA_OF_ASC_NODE":76.367,"ARG_OF_PERICENTER":81.7095,"MEAN_ANOMALY":278.4266,"EPHEMERIS_TYPE":0,"CLASSIFICATION_TYPE":"U","NORAD_CAT_ID":61599,"ELEMENT_SET_NO":999,"REV_AT_EPOCH":4805,"BSTAR":0.00015281998,"MEAN_MOTION_DOT":6.7e-7,"MEAN_MOTION_DDOT":0},{"OBJECT_NAME":"ONEWEB-0692","OBJECT_ID":"2024-188G","EPOCH":"2025-09-11T13:55:49.138176","MEAN_MOTION":13.11417178,"ECCENTRICITY":0.00013659,"INCLINATION":87.8768,"RA_OF_ASC_NODE":76.6079,"ARG_OF_PERICENTER":123.4125,"MEAN_ANOMALY":236.7134,"EPHEMERIS_TYPE":0,"CLASSIFICATION_TYPE":"U","NORAD_CAT_ID":61600,"ELEMENT_SET_NO":999,"REV_AT_EPOCH":4795,"BSTAR":0.0012245014,"MEAN_MOTION_DOT":4.47e-6,"MEAN_MOTION_DDOT":0},{"OBJECT_NAME":"ONEWEB-0693","OBJECT_ID":"2024-188H","EPOCH":"2025-09-12T04:37:56.989344","MEAN_MOTION":13.17647447,"ECCENTRICITY":0.00016092,"INCLINATION":87.9034,"RA_OF_ASC_NODE":61.2262,"ARG_OF_PERICENTER":62.6785,"MEAN_ANOMALY":297.451,"EPHEMERIS_TYPE":0,"CLASSIFICATION_TYPE":"U","NORAD_CAT_ID":61601,"ELEMENT_SET_NO":999,"REV_AT_EPOCH":4927,"BSTAR":-8.179739e-6,"MEAN_MOTION_DOT":1.0e-7,"MEAN_MOTION_DDOT":0},{"OBJECT_NAME":"ONEWEB-0695","OBJECT_ID":"2024-188J","EPOCH":"2025-09-12T11:19:59.439936","MEAN_MOTION":13.11417845,"ECCENTRICITY":0.00017903,"INCLINATION":87.8772,"RA_OF_ASC_NODE":76.4163,"ARG_OF_PERICENTER":107.708,"MEAN_ANOMALY":252.4243,"EPHEMERIS_TYPE":0,"CLASSIFICATION_TYPE":"U","NORAD_CAT_ID":61602,"ELEMENT_SET_NO":999,"REV_AT_EPOCH":4806,"BSTAR":-0.00050122663,"MEAN_MOTION_DOT":-1.65e-6,"MEAN_MOTION_DDOT":0},{"OBJECT_NAME":"ONEWEB-0697","OBJECT_ID":"2024-188K","EPOCH":"2025-09-12T04:46:56.022528","MEAN_MOTION":13.11409597,"ECCENTRICITY":0.0001443,"INCLINATION":87.8768,"RA_OF_ASC_NODE":76.4621,"ARG_OF_PERICENTER":114.5995,"MEAN_ANOMALY":245.5284,"EPHEMERIS_TYPE":0,"CLASSIFICATION_TYPE":"U","NORAD_CAT_ID":61603,"ELEMENT_SET_NO":999,"REV_AT_EPOCH":4801,"BSTAR":0.0044527782,"MEAN_MOTION_DOT":1.591e-5,"MEAN_MOTION_DDOT":0},{"OBJECT_NAME":"ONEWEB-0698","OBJECT_ID":"2024-188L","EPOCH":"2025-09-12T11:34:39.483552","MEAN_MOTION":13.11418523,"ECCENTRICITY":6.09e-5,"INCLINATION":87.8772,"RA_OF_ASC_NODE":76.4198,"ARG_OF_PERICENTER":99.0032,"MEAN_ANOMALY":261.1165,"EPHEMERIS_TYPE":0,"CLASSIFICATION_TYPE":"U","NORAD_CAT_ID":61604,"ELEMENT_SET_NO":999,"REV_AT_EPOCH":4807,"BSTAR":0.00071902526,"MEAN_MOTION_DOT":2.68e-6,"MEAN_MOTION_DDOT":0},{"OBJECT_NAME":"ONEWEB-0699","OBJECT_ID":"2024-188M","EPOCH":"2025-09-12T13:54:40.736160","MEAN_MOTION":13.10373954,"ECCENTRICITY":0.00012395,"INCLINATION":87.8748,"RA_OF_ASC_NODE":91.6154,"ARG_OF_PERICENTER":103.2792,"MEAN_ANOMALY":256.8473,"EPHEMERIS_TYPE":0,"CLASSIFICATION_TYPE":"U","NORAD_CAT_ID":61605,"ELEMENT_SET_NO":999,"REV_AT_EPOCH":4695,"BSTAR":-0.0017940345,"MEAN_MOTION_DOT":-6.14e-6,"MEAN_MOTION_DDOT":0}]
